OBJECT_NAME,OBJECT_ID,EPOCH,MEAN_MOTION,ECCENTRICITY,INCLINATION,RA_OF_ASC_NODE,ARG_OF_PERICENTER,MEAN_ANOMALY,EPHEMERIS_TYPE,CLASSIFICATION_TYPE,NORAD_CAT_ID,ELEMENT_SET_NO,REV_AT_EPOCH,BSTAR,MEAN_MOTION_DOT,MEAN_MOTION_DDOT
SL-16 R/B,1994-077B,2026-07-09T17:35:39.682752,14.15575812,.00040581,70.9829,95.7312,307.6531,52.4223,0,U,23405,999,63350,-.12371519E-3,-.29E-5,0
ARIANE 40+ R/B,1995-021B,2026-07-10T04:30:54.580608,14.39845904,.00077513,98.4402,260.9298,129.3535,254.5926,0,U,23561,999,63687,.57136772E-4,.136E-5,0
SL-16 R/B,1995-058B,2026-07-10T05:46:30.217728,14.15508118,.00146081,71.0215,282.9575,289.2839,70.6704,0,U,23705,999,58519,-.40522722E-4,-.127E-5,0
SL-16 R/B,1996-051B,2026-07-10T04:32:36.338208,14.12454537,.00174006,70.7650,275.9704,304.6233,55.3245,0,U,24298,999,53894,.97553211E-4,.131E-5,0
ORBVIEW 2 (SEASTAR),1997-037A,2026-07-09T17:48:13.832064,14.35565113,.00032268,98.8708,358.3882,71.7834,288.3701,0,U,24883,999,52598,.67593343E-4,.148E-5,0
SL-16 R/B,1998-043G,2026-07-10T07:20:39.141312,14.26072264,.00102996,98.8377,145.6657,25.0584,335.1093,0,U,25400,999,45646,.2344845E-4,.11E-6,0
SL-16 R/B,1998-045B,2026-07-10T06:17:22.504992,14.16207072,.00084303,71.0120,283.8029,213.5475,146.5115,0,U,25407,999,44445,-.92461759E-4,-.231E-5,0
ISS (ZARYA),1998-067A,2026-07-10T08:19:50.601216,15.48968037,.00066879,51.6302,185.4700,278.6359,81.3872,0,U,25544,999,57534,.11130671E-3,.5681E-4,0
CZ-4B R/B,1999-025C,2026-07-10T01:25:41.612160,14.18287138,.00369286,98.6473,232.3211,354.6614,33.4161,0,U,25732,999,40551,.23674816E-4,.6E-7,0
OKEAN-O,1999-039A,2026-07-10T14:20:14.695584,14.80494216,.00009895,97.9304,250.1251,78.8596,281.2727,0,U,25860,999,45257,.46590739E-4,.305E-5,0
SL-16 R/B,1999-039B,2026-07-10T02:59:40.812288,14.81867733,.00139386,97.9825,249.9211,215.5721,144.4564,0,U,25861,999,45499,.42349391E-4,.281E-5,0
DELTA 2 R/B,1999-041E,2026-07-10T07:42:07.823232,14.12071111,.05012709,51.7613,171.3733,350.3651,8.7936,0,U,25876,999,38035,.2401526E-3,.1256E-4,0
HELIOS 1B,1999-064A,2026-07-10T10:40:40.681920,14.88067995,.00021592,98.1592,97.2561,60.2045,299.9385,0,U,25977,999,70351,.98063079E-4,.843E-5,0
TERRA,1999-068A,2026-07-10T14:11:12.130368,14.61121418,.00032224,97.9443,240.2080,131.9047,12.2545,0,U,25994,999,41302,.50692031E-4,.205E-5,0
SL-16 R/B,2000-006B,2026-07-10T00:38:20.236704,14.15839536,.00169787,71.0003,200.6011,347.2271,12.8419,0,U,26070,999,36587,-.99655472E-4,-.244E-5,0
TITAN 4B R/B,2000-047B,2026-07-10T13:42:15.211296,15.10319441,.0045944,67.9872,54.7470,263.3274,96.2645,0,U,26474,999,41146,.98853096E-4,.1522E-4,0
ENVISAT,2002-009A,2026-07-10T08:23:40.076160,14.39070079,.00013529,98.3846,142.1531,84.3059,63.5741,0,U,27386,999,27681,.2340758E-4,.29E-6,0
IDEFIX & ARIANE 42P R/B,2002-021B,2026-07-10T06:31:47.755200,14.31092447,.00115861,98.5942,128.5054,180.8092,179.3074,0,U,27422,999,26155,.56475991E-4,.105E-5,0
AQUA,2002-022A,2026-07-10T14:14:43.285920,14.62192929,.00008105,98.4292,161.3464,105.1270,310.2303,0,U,27424,999,28669,.96743083E-4,.438E-5,0
CZ-4B R/B,2002-024C,2026-07-10T14:21:58.537152,14.14567773,.00507144,98.8688,244.2653,34.9386,110.3090,0,U,27432,999,24661,.20325182E-4,-.5E-7,0
MIDORI II (ADEOS-II),2002-056A,2026-07-10T07:24:13.681152,14.29361606,.00016802,98.7892,150.7665,46.7248,313.4074,0,U,27597,999,22781,.71278219E-4,.136E-5,0
H-2A R/B,2002-056E,2026-07-10T15:44:00.000384,14.33832351,.00706268,98.3326,147.4762,154.3341,200.0518,0,U,27601,999,23172,.58693996E-4,.127E-5,0
CZ-4B R/B,2003-049C,2026-07-09T23:48:28.246176,14.55113935,.00473367,98.6906,190.7473,217.3645,142.4256,0,U,28059,999,20438,.48379427E-4,.16E-5,0
CZ-2C R/B,2004-012C,2026-07-08T19:16:42.700800,15.83823781,.00111271,97.7050,268.0571,210.2414,149.8213,0,U,28222,999,22331,.44522244E-3,.99446E-3,0
SL-16 R/B,2004-021B,2026-07-10T08:30:56.236320,14.14615417,.00064353,71.0024,335.0662,229.1860,130.8705,0,U,28353,999,14018,.11210395E-3,.168E-5,0
CZ-4B R/B,2004-035C,2026-07-10T01:50:38.172480,15.30946600,.002897,97.3363,223.8953,251.7911,108.0176,0,U,28415,999,19862,.17193816E-3,.5127E-4,0
CZ-2C R/B,2004-046B,2026-07-10T04:33:28.479744,14.27032158,.0139855,98.1925,98.5309,152.1241,208.7525,0,U,28480,999,12597,.33450247E-4,.5E-6,0
ARIANE 5 R/B,2004-049H,2026-07-09T23:09:40.148064,14.85475243,.0082885,98.2737,4.1006,315.4598,43.9973,0,U,28499,999,16394,.4127965E-4,.312E-5,0
CZ-2D R/B,2005-024B,2026-07-10T00:35:32.486784,15.72259089,.00014369,97.3474,211.6350,209.4582,150.6601,0,U,28738,999,15892,.40523081E-3,.53547E-3,0
ALOS (DAICHI),2006-002A,2026-07-09T19:46:44.296320,14.70095524,.00007798,98.1335,146.3228,84.1885,275.9410,0,U,28931,999,9142,.11791798E-3,.659E-5,0
